{"type": "FeatureCollection", "features": [ {"type": "Feature", "properties": {"norad_id": 35480, "name": "IRIDIUM 33 DEB", "group": "iridium-33-debris", "lat": 0.938339092990775, "lon": 20.21941956444531, "alt_km": 724.9747927089875, "timestamp": "2025-12-23T16:57:12.739555+00:00", "meta": {"OBJECT_NAME": "IRIDIUM 33 DEB", "OBJECT_ID": "1997-051QA", "EPOCH": "2025-12-15T08:30:57.118464", "MEAN_MOTION": 14.49774703, "ECCENTRICITY": 0.00160032, "INCLINATION": 86.3571, "RA_OF_ASC_NODE": 23.7786, "ARG_OF_PERICENTER": 97.0457, "MEAN_ANOMALY": 263.2568, "EPHEMERIS_TYPE": 0, "CLASSIFICATION_TYPE": "U", "NORAD_CAT_ID": 35480, "ELEMENT_SET_NO": 999, "REV_AT_EPOCH": 87069, "BSTAR": 0.00045738518, "MEAN_MOTION_DOT": 1.785e-05, "MEAN_MOTION_DDOT": 0}, "tle": {"line1": "1 35480U 97051QA  25349.35482776  .00001785  00000+0  45739-3 0  9998", "line2": "2 35480  86.3571  23.7786 0016003  97.0457 263.2568 14.49774703870695"}}, "geometry": {"type": "Point", "coordinates": [20.21941956444531, 0.938339092990775]}}, {"type": "Feature", "properties": {"norad_id": 35484, "name": "IRIDIUM 33 DEB", "group": "iridium-33-debris", "lat": -54.856744530022695, "lon": -17.574720371300014, "alt_km": 590.1562335598992, "timestamp": "2025-12-23T16:57:12.739590+00:00", "meta": {"OBJECT_NAME": "IRIDIUM 33 DEB", "OBJECT_ID": "1997-051QE", "EPOCH": "2025-12-23T05:59:10.354560", "MEAN_MOTION": 14.99264182, "ECCENTRICITY": 0.00245796, "INCLINATION": 86.3609, "RA_OF_ASC_NODE": 347.8264, "ARG_OF_PERICENTER": 91.5392, "MEAN_ANOMALY": 268.8655, "EPHEMERIS_TYPE": 0, "CLASSIFICATION_TYPE": "U", "NORAD_CAT_ID": 35484, "ELEMENT_SET_NO": 999, "REV_AT_EPOCH": 62173, "BSTAR": 0.0029536278, "MEAN_MOTION_DOT": 0.00036413, "MEAN_MOTION_DDOT": 0}, "tle": {"line1": "1 35484U 97051QE  25357.24942540  .00036413  00000+0  29536-2 0  9991", "line2": "2 35484  86.3609 347.8264 0024579  91.5392 268.8655 14.99264182621733"}}, "geometry": {"type": "Point", "coordinates": [-17.574720371300014, -54.856744530022695]}}, {"type": "Feature", "properties": {"norad_id": 35488, "name": "IRIDIUM 33 DEB", "group": "iridium-33-debris", "lat": 27.134899935943597, "lon": 113.93323494091034, "alt_km": 634.4110161939689, "timestamp": "2025-12-23T16:57:12.739608+00:00", "meta": {"OBJECT_NAME": "IRIDIUM 33 DEB", "OBJECT_ID": "1997-051QJ", "EPOCH": "2025-12-22T19:13:13.565280", "MEAN_MOTION": 14.8329676, "ECCENTRICITY": 0.00284188, "INCLINATION": 86.3248, "RA_OF_ASC_NODE": 296.2385, "ARG_OF_PERICENTER": 9.7501, "MEAN_ANOMALY": 350.4267, "EPHEMERIS_TYPE": 0, "CLASSIFICATION_TYPE": "U", "NORAD_CAT_ID": 35488, "ELEMENT_SET_NO": 999, "REV_AT_EPOCH": 88415, "BSTAR": 0.0016428334, "MEAN_MOTION_DOT": 0.00013576, "MEAN_MOTION_DDOT": 0}, "tle": {"line1": "1 35488U 97051QJ  25356.80085145  .00013576  00000+0  16428-2 0  9996", "line2": "2 35488  86.3248 296.2385 0028418   9.7501 350.4267 14.83296760884150"}}, "geometry": {"type": "Point", "coordinates": [113.93323494091034, 27.134899935943597]}}, {"type": "Feature", "properties": {"norad_id": 35616, "name": "IRIDIUM 33 DEB", "group": "iridium-33-debris", "lat": -81.81669186167147, "lon": -172.92441139044928, "alt_km": 635.995014933982, "timestamp": "2025-12-23T16:57:12.739626+00:00", "meta": {"OBJECT_NAME": "IRIDIUM 33 DEB", "OBJECT_ID": "1997-051QN", "EPOCH": "2025-12-21T16:46:45.287328", "MEAN_MOTION": 14.82015021, "ECCENTRICITY": 0.00114093, "INCLINATION": 86.3545, "RA_OF_ASC_NODE": 341.6744, "ARG_OF_PERICENTER": 134.0095, "MEAN_ANOMALY": 226.2069, "EPHEMERIS_TYPE": 0, "CLASSIFICATION_TYPE": "U", "NORAD_CAT_ID": 35616, "ELEMENT_SET_NO": 999, "REV_AT_EPOCH": 87707, "BSTAR": 0.0013754653, "MEAN_MOTION_DOT": 0.00010957, "MEAN_MOTION_DDOT": 0}, "tle": {"line1": "1 35616U 97051QN  25355.69913527  .00010957  00000+0  13755-2 0  9999", "line2": "2 35616  86.3545 341.6744 0011409 134.0095 226.2069 14.82015021877070"}}, "geometry": {"type": "Point", "coordinates": [-172.92441139044928, -81.81669186167147]}}, {"type": "Feature", "properties": {"norad_id": 35618, "name": "IRIDIUM 33 DEB", "group": "iridium-33-debris", "lat": -59.5838181947179, "lon": -17.547227473529, "alt_km": 710.8346617845773, "timestamp": "2025-12-23T16:57:12.739638+00:00", "meta": {"OBJECT_NAME": "IRIDIUM 33 DEB", "OBJECT_ID": "1997-051QQ", "EPOCH": "2025-12-21T17:16:24.492288", "MEAN_MOTION": 14.52331103, "ECCENTRICITY": 0.00284149, "INCLINATION": 86.341, "RA_OF_ASC_NODE": 349.5786, "ARG_OF_PERICENTER": 351.4344, "MEAN_ANOMALY": 8.6373, "EPHEMERIS_TYPE": 0, "CLASSIFICATION_TYPE": "U", "NORAD_CAT_ID": 35618, "ELEMENT_SET_NO": 999, "REV_AT_EPOCH": 65524, "BSTAR": 0.00039049847, "MEAN_MOTION_DOT": 1.617e-05, "MEAN_MOTION_DDOT": 0}, "tle": {"line1": "1 35618U 97051QQ  25355.71972792  .00001617  00000+0  39050-3 0  9993", "line2": "2 35618  86.3410 349.5786 0028414 351.4344   8.6373 14.52331103655244"}}, "geometry": {"type": "Point", "coordinates": [-17.547227473529, -59.5838181947179]}}, {"type": "Feature", "properties": {"norad_id": 35620, "name": "IRIDIUM 33 DEB", "group": "iridium-33-debris", "lat": 84.82849289820815, "lon": -102.9352537302517, "alt_km": 827.1588883351587, "timestamp": "2025-12-23T16:57:12.739649+00:00", "meta": {"OBJECT_NAME": "IRIDIUM 33 DEB", "OBJECT_ID": "1997-051QS", "EPOCH": "2025-12-22T20:30:28.552032", "MEAN_MOTION": 14.38347661, "ECCENTRICITY": 0.01386054, "INCLINATION": 86.3896, "RA_OF_ASC_NODE": 213.1884, "ARG_OF_PERICENTER": 225.2631, "MEAN_ANOMALY": 133.722, "EPHEMERIS_TYPE": 0, "CLASSIFICATION_TYPE": "U", "NORAD_CAT_ID": 35620, "ELEMENT_SET_NO": 999, "REV_AT_EPOCH": 60111, "BSTAR": 0.0048145094, "MEAN_MOTION_DOT": 0.00016436, "MEAN_MOTION_DDOT": 0}, "tle": {"line1": "1 35620U 97051QS  25356.85449713  .00016436  00000+0  48145-2 0  9993", "line2": "2 35620  86.3896 213.1884 0138605 225.2631 133.7220 14.38347661601119"}}, "geometry": {"type": "Point", "coordinates": [-102.9352537302517, 84.82849289820815]}}, {"type": "Feature", "properties": {"norad_id": 35622, "name": "IRIDIUM 33 DEB", "group": "iridium-33-debris", "lat": -63.00269503064044, "lon": -109.29906685689026, "alt_km": 553.6436260930759, "timestamp": "2025-12-23T16:57:12.739660+00:00", "meta": {"OBJECT_NAME": "IRIDIUM 33 DEB", "OBJECT_ID": "1997-051QU", "EPOCH": "2025-12-22T17:26:20.934816", "MEAN_MOTION": 15.05728881, "ECCENTRICITY": 0.00037836, "INCLINATION": 86.2011, "RA_OF_ASC_NODE": 258.6786, "ARG_OF_PERICENTER": 291.3821, "MEAN_ANOMALY": 97.8635, "EPHEMERIS_TYPE": 0, "CLASSIFICATION_TYPE": "U", "NORAD_CAT_ID": 35622, "ELEMENT_SET_NO": 999, "REV_AT_EPOCH": 87510, "BSTAR": 0.0037158525, "MEAN_MOTION_DOT": 0.00054114, "MEAN_MOTION_DDOT": 0}, "tle": {"line1": "1 35622U 97051QU  25356.72663119  .00054114  00000+0  37159-2 0  9997", "line2": "2 35622  86.2011 258.6786 0003783 291.3821  97.8635 15.05728881875101"}}, "geometry": {"type": "Point", "coordinates": [-109.29906685689026, -63.00269503064044]}}, {"type": "Feature", "properties": {"norad_id": 35628, "name": "IRIDIUM 33 DEB", "group": "iridium-33-debris", "lat": 81.5654355197031, "lon": 29.63538231541244, "alt_km": 666.214266627434, "timestamp": "2025-12-23T16:57:12.739673+00:00", "meta": {"OBJECT_NAME": "IRIDIUM 33 DEB", "OBJECT_ID": "1997-051RA", "EPOCH": "2025-12-20T06:45:55.793664", "MEAN_MOTION": 14.67680924, "ECCENTRICITY": 0.00096368, "INCLINATION": 86.3562, "RA_OF_ASC_NODE": 5.7112, "ARG_OF_PERICENTER": 314.2717, "MEAN_ANOMALY": 45.7705, "EPHEMERIS_TYPE": 0, "CLASSIFICATION_TYPE": "U", "NORAD_CAT_ID": 35628, "ELEMENT_SET_NO": 999, "REV_AT_EPOCH": 86557, "BSTAR": 0.00085133469, "MEAN_MOTION_DOT": 4.868e-05, "MEAN_MOTION_DDOT": 0}, "tle": {"line1": "1 35628U 97051RA  25354.28189576  .00004868  00000+0  85133-3 0  9999", "line2": "2 35628  86.3562   5.7112 0009636 314.2717  45.7705 14.67680924865577"}}, "geometry": {"type": "Point", "coordinates": [29.63538231541244, 81.5654355197031]}}, {"type": "Feature", "properties": {"norad_id": 35631, "name": "IRIDIUM 33 DEB", "group": "iridium-33-debris", "lat": -76.55047501120644, "lon": -148.33519326777275, "alt_km": 755.2477999256425, "timestamp": "2025-12-23T16:57:12.739683+00:00", "meta": {"OBJECT_NAME": "IRIDIUM 33 DEB", "OBJECT_ID": "1997-051RD", "EPOCH": "2025-12-23T00:56:12.471936", "MEAN_MOTION": 14.47337727, "ECCENTRICITY": 0.00191219, "INCLINATION": 86.3657, "RA_OF_ASC_NODE": 16.5397, "ARG_OF_PERICENTER": 87.1919, "MEAN_ANOMALY": 294.7675, "EPHEMERIS_TYPE": 0, "CLASSIFICATION_TYPE": "U", "NORAD_CAT_ID": 35631, "ELEMENT_SET_NO": 999, "REV_AT_EPOCH": 87346, "BSTAR": 0.00033499621, "MEAN_MOTION_DOT": 1.249e-05, "MEAN_MOTION_DDOT": 0}, "tle": {"line1": "1 35631U 97051RD  25357.03903324  .00001249  00000+0  33500-3 0  9995", "line2": "2 35631  86.3657  16.5397 0019121  87.1919 294.7675 14.47337727873468"}}, "geometry": {"type": "Point", "coordinates": [-148.33519326777275, -76.55047501120644]}}, {"type": "Feature", "properties": {"norad_id": 35680, "name": "IRIDIUM 33 DEB", "group": "iridium-33-debris", "lat": -85.9521602963956, "lon": -57.77363613259191, "alt_km": 732.8176762412813, "timestamp": "2025-12-23T16:57:12.739693+00:00", "meta": {"OBJECT_NAME": "IRIDIUM 33 DEB", "OBJECT_ID": "1997-051RJ", "EPOCH": "2025-12-21T07:58:47.284608", "MEAN_MOTION": 14.2104558, "ECCENTRICITY": 0.01505558, "INCLINATION": 86.1025, "RA_OF_ASC_NODE": 17.7185, "ARG_OF_PERICENTER": 250.9856, "MEAN_ANOMALY": 122.3959, "EPHEMERIS_TYPE": 0, "CLASSIFICATION_TYPE": "U", "NORAD_CAT_ID": 35680, "ELEMENT_SET_NO": 999, "REV_AT_EPOCH": 60823, "BSTAR": 0.0026505481, "MEAN_MOTION_DOT": 6.465e-05, "MEAN_MOTION_DDOT": 0}, "tle": {"line1": "1 35680U 97051RJ  25355.33249172  .00006465  00000+0  26505-2 0  9995", "line2": "2 35680  86.1025  17.7185 0150555 250.9856 122.3959 14.21045580608231"}}, "geometry": {"type": "Point", "coordinates": [-57.77363613259191, -85.9521602963956]}}]}